$$SOE
2459580.500000000, A.D. 2022-Jan-01 00:00:00.0000, 2.783426567171937E+07, -6.519485689665929E+08, -7.716112381801239E+07,
2459587.500000000, A.D. 2022-Jan-08 00:00:00.0000, 3.577589061748586E+07, -6.505466620471417E+08, -7.842109344481665E+07,
2459594.500000000, A.D. 2022-Jan-15 00:00:00.0000, 4.371136682200518E+07, -6.490329566902086E+08, -7.966758355635253E+07,
2459601.500000000, A.D. 2022-Jan-22 00:00:00.0000, 5.163930504451203E+07, -6.474072697096710E+08, -8.090032575316775E+07,
2459608.500000000, A.D. 2022-Jan-29 00:00:00.0000, 5.955830638255679E+07, -6.456694283087777E+08, -8.211905112914038E+07,
2459615.500000000, A.D. 2022-Feb-05 00:00:00.0000, 6.746696000255434E+07, -6.438192710171108E+08, -8.332349014204073E+07,
2459622.500000000, A.D. 2022-Feb-12 00:00:00.0000, 7.536384304709572E+07, -6.418566497027860E+08, -8.451337277049112E+07,
2459629.500000000, A.D. 2022-Feb-19 00:00:00.0000, 8.324752139454514E+07, -6.397814302912977E+08, -8.568842864242327E+07,
2459636.500000000, A.D. 2022-Feb-26 00:00:00.0000, 9.111654995973699E+07, -6.375934929142656E+08, -8.684838707409069E+07,
2459643.500000000, A.D. 2022-Mar-05 00:00:00.0000, 9.896947269522129E+07, -6.352927321050653E+08, -8.799297708495823E+07,
2459650.500000000, A.D. 2022-Mar-12 00:00:00.0000, 1.068048225150900E+08, -6.328790571070403E+08, -8.912192741452882E+07,
2459657.500000000, A.D. 2022-Mar-19 00:00:00.0000, 1.146211212127001E+08, -6.303523922661536E+08, -9.023496654568607E+07,
2459664.500000000, A.D. 2022-Mar-26 00:00:00.0000, 1.224168793950135E+08, -6.277126775138786E+08, -9.133182273744985E+07,
2459671.500000000, A.D. 2022-Apr-02 00:00:00.0000, 1.301905965017223E+08, -6.249598689960823E+08, -9.241222407827699E+07,
2459678.500000000, A.D. 2022-Apr-09 00:00:00.0000, 1.379407611815541E+08, -6.220939398431019E+08, -9.347589858480027E+07,
2459685.500000000, A.D. 2022-Apr-16 00:00:00.0000, 1.456658523830885E+08, -6.191148804270700E+08, -9.452257432559854E+07,
2459692.500000000, A.D. 2022-Apr-23 00:00:00.0000, 1.533643398911847E+08, -6.160226970222044E+08, -9.555197936518297E+07,
2459699.500000000, A.D. 2022-Apr-30 00:00:00.0000, 1.610346824387862E+08, -6.128174111127729E+08, -9.656384154016292E+07,
2459706.500000000, A.D. 2022-May-07 00:00:00.0000, 1.686753264571424E+08, -6.094990613214937E+08, -9.755788850977609E+07,
2459713.500000000, A.D. 2022-May-14 00:00:00.0000, 1.762847068545315E+08, -6.060677049198639E+08, -9.853384796000838E+07,
2459720.500000000, A.D. 2022-May-21 00:00:00.0000, 1.838612477930961E+08, -6.025234181617882E+08, -9.949144771311280E+07,
2459727.500000000, A.D. 2022-May-28 00:00:00.0000, 1.914033629855923E+08, -5.988662963994406E+08, -1.004304157770894E+08,
2459734.500000000, A.D. 2022-Jun-04 00:00:00.0000, 1.989094557896869E+08, -5.950964542944069E+08, -1.013504803862490E+08,
2459741.500000000, A.D. 2022-Jun-11 00:00:00.0000, 2.063779192448676E+08, -5.912140261221088E+08, -1.022513700460738E+08,
2459748.500000000, A.D. 2022-Jun-18 00:00:00.0000, 2.138071360909197E+08, -5.872191661562194E+08, -1.031328135848919E+08,
2459755.500000000, A.D. 2022-Jun-25 00:00:00.0000, 2.211954787976643E+08, -5.831120491659935E+08, -1.039945402177621E+08,
2459762.500000000, A.D. 2022-Jul-02 00:00:00.0000, 2.285413097403617E+08, -5.788928710918939E+08, -1.048362796401786E+08,
2459769.500000000, A.D. 2022-Jul-09 00:00:00.0000, 2.358429819115278E+08, -5.745618497222714E+08, -1.056577621728613E+08,
2459776.500000000, A.D. 2022-Jul-16 00:00:00.0000, 2.430988401144174E+08, -5.701192242882122E+08, -1.064587188640027E+08,
2459783.500000000, A.D. 2022-Jul-23 00:00:00.0000, 2.503072204400056E+08, -5.655652538987033E+08, -1.072388813408034E+08,
2459790.500000000, A.D. 2022-Jul-30 00:00:00.0000, 2.574664481117483E+08, -5.609002181694131E+08, -1.079979816918012E+08,
2459797.500000000, A.D. 2022-Aug-06 00:00:00.0000, 2.645748372975294E+08, -5.561244193963286E+08, -1.087357526568779E+08,
2459804.500000000, A.D. 2022-Aug-13 00:00:00.0000, 2.716306920664638E+08, -5.512381835197437E+08, -1.094519278242196E+08,
2459811.500000000, A.D. 2022-Aug-20 00:00:00.0000, 2.786323069218918E+08, -5.462418603821038E+08, -1.101462417313104E+08,
2459818.500000000, A.D. 2022-Aug-27 00:00:00.0000, 2.855779669792721E+08, -5.411358240062739E+08, -1.108184299354809E+08,
2459825.500000000, A.D. 2022-Sep-03 00:00:00.0000, 2.924659480374305E+08, -5.359204730047213E+08, -1.114682290857143E+08,
2459832.500000000, A.D. 2022-Sep-10 00:00:00.0000, 2.992945166337441E+08, -5.305962310955883E+08, -1.120953770019932E+08,
2459839.500000000, A.D. 2022-Sep-17 00:00:00.0000, 3.060619301131207E+08, -5.251635477271787E+08, -1.126996127650467E+08,
2459846.500000000, A.D. 2022-Sep-24 00:00:00.0000, 3.127664367716997E+08, -5.196228988613908E+08, -1.132806768262761E+08,
2459853.500000000, A.D. 2022-Oct-01 00:00:00.0000, 3.194062763159121E+08, -5.139747879380308E+08, -1.138383111618786E+08,
2459860.500000000, A.D. 2022-Oct-08 00:00:00.0000, 3.259796810450194E+08, -5.082197464977709E+08, -1.143722594661730E+08,
2459867.500000000, A.D. 2022-Oct-15 00:00:00.0000, 3.324848768260251E+08, -5.023583332646745E+08, -1.148822672010697E+08,
2459874.500000000, A.D. 2022-Oct-22 00:00:00.0000, 3.389200816797027E+08, -4.963911333720584E+08, -1.153680814395170E+08,
2459881.500000000, A.D. 2022-Oct-29 00:00:00.0000, 3.452835044758495E+08, -4.903187603244110E+08, -1.158294509442055E+08,
2459888.500000000, A.D. 2022-Nov-05 00:00:00.0000, 3.515733458378770E+08, -4.841418579535120E+08, -1.162661264503917E+08,
2459895.500000000, A.D. 2022-Nov-12 00:00:00.0000, 3.577877992928654E+08, -4.778611011012871E+08, -1.166778608694516E+08,
2459902.500000000, A.D. 2022-Nov-19 00:00:00.0000, 3.639250519484853E+08, -4.714771959833132E+08, -1.170644094254857E+08,
2459909.500000000, A.D. 2022-Nov-26 00:00:00.0000, 3.699832849597063E+08, -4.649908806299976E+08, -1.174255297817627E+08,
2459916.500000000, A.D. 2022-Dec-03 00:00:00.0000, 3.759606739519613E+08, -4.584029254166180E+08, -1.177609821733734E+08,
2459923.500000000, A.D. 2022-Dec-10 00:00:00.0000, 3.818553894468145E+08, -4.517141336631555E+08, -1.180705295488674E+08,
2459930.500000000, A.D. 2022-Dec-17 00:00:00.0000, 3.876655973151890E+08, -4.449253423283673E+08, -1.183539377251910E+08,
2459937.500000000, A.D. 2022-Dec-24 00:00:00.0000, 3.933894593677784E+08, -4.380374228630942E+08, -1.186109755712257E+08,
2459944.500000000, A.D. 2022-Dec-31 00:00:00.0000, 3.990251344406728E+08, -4.310512821141865E+08, -1.188414152437735E+08,
2459951.500000000, A.D. 2023-Jan-07 00:00:00.0000, 4.045707800996857E+08, -4.239678623156499E+08, -1.190450324084955E+08,
2459958.500000000, A.D. 2023-Jan-14 00:00:00.0000, 4.100245529972296E+08, -4.167881396695064E+08, -1.192216062247675E+08,
2459965.500000000, A.D. 2023-Jan-21 00:00:00.0000, 4.153846072375351E+08, -4.095131246881221E+08, -1.193709192945049E+08,
2459972.500000000, A.D. 2023-Jan-28 00:00:00.0000, 4.206490944188766E+08, -4.021438644921820E+08, -1.194927579272723E+08,
2459979.500000000, A.D. 2023-Feb-04 00:00:00.0000, 4.258161651454286E+08, -3.946814440356737E+08, -1.195869124552098E+08,
2459986.500000000, A.D. 2023-Feb-11 00:00:00.0000, 4.308839702146162E+08, -3.871269864509944E+08, -1.196531774490493E+08,
2459993.500000000, A.D. 2023-Feb-18 00:00:00.0000, 4.358506614174541E+08, -3.794816533367096E+08, -1.196913518966986E+08,
2460000.500000000, A.D. 2023-Feb-25 00:00:00.0000, 4.407143922152691E+08, -3.717466451488075E+08, -1.197012393815969E+08,
2460007.500000000, A.D. 2023-Mar-04 00:00:00.0000, 4.454733183955745E+08, -3.639232016754543E+08, -1.196826482684837E+08,
2460014.500000000, A.D. 2023-Mar-11 00:00:00.0000, 4.501255987362472E+08, -3.560126025934179E+08, -1.196353918989032E+08,
2460021.500000000, A.D. 2023-Mar-18 00:00:00.0000, 4.546693957255139E+08, -3.480161681541280E+08, -1.195592888044748E+08,
2460028.500000000, A.D. 2023-Mar-25 00:00:00.0000, 4.591028765414553E+08, -3.399352600448201E+08, -1.194541629600442E+08,
2460035.500000000, A.D. 2023-Apr-01 00:00:00.0000, 4.634242147162166E+08, -3.317712820294645E+08, -1.193198440831537E+08,
2460042.500000000, A.D. 2023-Apr-08 00:00:00.0000, 4.676315918705955E+08, -3.235256791429629E+08, -1.191561678231045E+08,
2460049.500000000, A.D. 2023-Apr-15 00:00:00.0000, 4.717231971827928E+08, -3.151999365437856E+08, -1.189629757155474E+08,
2460056.500000000, A.D. 2023-Apr-22 00:00:00.0000, 4.756972264004005E+08, -3.067955810755751E+08, -1.187401153176473E+08,
2460063.500000000, A.D. 2023-Apr-29 00:00:00.0000, 4.795518831305807E+08, -2.983141832827363E+08, -1.184874405902394E+08,
2460070.500000000, A.D. 2023-May-06 00:00:00.0000, 4.832853806486996E+08, -2.897573580969819E+08, -1.182048122198709E+08,
2460077.500000000, A.D. 2023-May-13 00:00:00.0000, 4.868959432490909E+08, -2.811267650867564E+08, -1.178920978641761E+08,
2460084.500000000, A.D. 2023-May-20 00:00:00.0000, 4.903818073723349E+08, -2.724241087589632E+08, -1.175491723822453E+08,
2460091.500000000, A.D. 2023-May-27 00:00:00.0000, 4.937412227026699E+08, -2.636511389406739E+08, -1.171759180702138E+08,
2460098.500000000, A.D. 2023-Jun-03 00:00:00.0000, 4.969724532931811E+08, -2.548096512130578E+08, -1.167722249053267E+08,
2460105.500000000, A.D. 2023-Jun-10 00:00:00.0000, 5.000737787424830E+08, -2.459014874095092E+08, -1.163379908018746E+08,
2460112.500000000, A.D. 2023-Jun-17 00:00:00.0000, 5.030434955116245E+08, -2.369285362362196E+08, -1.158731218920971E+08,
2460119.500000000, A.D. 2023-Jun-24 00:00:00.0000, 5.058799187006779E+08, -2.278927339574276E+08, -1.153775328567685E+08,
2460126.500000000, A.D. 2023-Jul-01 00:00:00.0000, 5.085813845379052E+08, -2.187960643148029E+08, -1.148511472609129E+08,
2460133.500000000, A.D. 2023-Jul-08 00:00:00.0000, 5.111462519079419E+08, -2.096405568568630E+08, -1.142938976740217E+08,
2460140.500000000, A.D. 2023-Jul-15 00:00:00.0000, 5.135729016422788E+08, -2.004282865068620E+08, -1.137057256889811E+08,
$$EOE